XRISM                   
1 57800U 23137A   23327.12410302  .00006905  00000+0  55428-3 0  9992
2 57800  31.0036 247.9467 0010422 316.8314  43.1504 14.98677729 11570
